NORAD_CAT_ID,OBJECT_NAME,OBJECT_TYPE,EPOCH,MEAN_MOTION,ECCENTRICITY,INCLINATION,RA_OF_ASC_NODE,ARG_OF_PERICENTER,MEAN_ANOMALY,BSTAR,MEAN_MOTION_DOT,MEAN_MOTION_DDOT,TLE_LINE0,TLE_LINE1,TLE_LINE2,SEMIMAJOR_AXIS,PERIOD,APOGEE,PERIGEE,DECAYED
52269.0,STARLINK-3791,PAYLOAD,2022-06-09 22:00:00,15.35583699,0.0001483,53.2174,135.4487,55.0976,225.8301,-0.022094,-0.00716141,0.0,0 STARLINK-3791,1 52269U 22041J   22160.91667824 -.00716141  00000-0 -22094-1 0  9997,2 52269  53.2174 135.4487 0001483  55.0976 225.8301 15.35583699  8922,6837.324000000001,93.775,460.203,458.175,0.0
52269.0,STARLINK-3791,PAYLOAD,2022-06-10 14:00:01,15.34565725,0.000134,53.2174,132.3323,52.6716,314.4822,-0.022973,-0.00720316,0.0,0 STARLINK-3791,1 52269U 22041J   22161.58334491 -.00720316  00000-0 -22973-1 0  9997,2 52269  53.2174 132.3323 0001340  52.6716 314.4822 15.34565725  1301,6840.348000000001,93.838,463.129,461.296,0.0
52269.0,STARLINK-3791,PAYLOAD,2022-06-10 22:00:00,15.3405304,0.00015,53.2174,130.7746,44.9601,4.3892,-0.023172,-0.00715185,0.0,0 STARLINK-3791,1 52269U 22041J   22161.91667824 -.00715185  00000-0 -23172-1 0  9993,2 52269  53.2174 130.7746 0001500  44.9601   4.3892 15.34053040  9073,6841.871999999999,93.869,464.763,462.71,0.0
52269.0,STARLINK-3791,PAYLOAD,2022-06-11 22:00:00,15.32524225,0.0001715,53.2176,126.1118,46.2018,126.0531,-0.024373,-0.00716527,0.0,0 STARLINK-3791,1 52269U 22041J   22162.91667824 -.00716527  00000-0 -24373-1 0  9999,2 52269  53.2176 126.1118 0001715  46.2018 126.0531 15.32524225  9238,6846.420999999999,93.963,469.46,467.112,0.0
52269.0,STARLINK-3791,PAYLOAD,2022-06-12 14:00:01,15.31506565,0.000164,53.2174,123.0095,48.0774,203.0505,-0.025342,-0.00721121,0.0,0 STARLINK-3791,1 52269U 22041J   22163.58334491 -.00721121  00000-0 -25342-1 0  9997,2 52269  53.2174 123.0095 0001640  48.0774 203.0505 15.31506565  1305,6849.454000000002,94.025,472.442,470.195,0.0
52269.0,STARLINK-3791,PAYLOAD,2022-06-12 22:00:00,15.30994443,0.0001657,53.2176,121.4595,44.0411,245.605,-0.025569,-0.00716383,0.0,0 STARLINK-3791,1 52269U 22041J   22163.91667824 -.00716383  00000-0 -25569-1 0  9998,2 52269  53.2176 121.4595 0001657  44.0411 245.6050 15.30994443  9384,6850.981,94.057,473.981,471.711,0.0
52269.0,STARLINK-3791,PAYLOAD,2022-06-13 14:00:01,15.29975697,0.0001435,53.2174,118.3644,47.6045,317.2384,-0.026529,-0.00719719,0.0,0 STARLINK-3791,1 52269U 22041J   22164.58334491 -.00719719  00000-0 -26529-1 0  9996,2 52269  53.2174 118.3644 0001435  47.6045 317.2384 15.29975697  1306,6854.022,94.119,476.87,474.903,0.0
52269.0,STARLINK-3791,PAYLOAD,2022-06-13 22:00:00,15.29464086,0.0001669,53.2176,116.8184,38.0151,3.5074,-0.026809,-0.00716177,0.0,0 STARLINK-3791,1 52269U 22041J   22164.91667824 -.00716177  00000-0 -26809-1 0  9998,2 52269  53.2176 116.8184 0001669  38.0151   3.5074 15.29464086  9530,6855.55,94.151,478.559,476.271,0.0
52269.0,STARLINK-3791,PAYLOAD,2022-06-14 14:00:01,15.28444286,0.0001791,53.2174,113.7303,37.1366,75.9061,-0.027687,-0.00724965,0.0,0 STARLINK-3791,1 52269U 22041J   22165.58334491 -.00724965  00000-0 -27687-1 0  9992,2 52269  53.2174 113.7303 0001791  37.1366  75.9061 15.28444286  1306,6858.599,94.213,481.693,479.236,0.0
52269.0,STARLINK-3791,PAYLOAD,2022-06-14 22:00:00,15.27933435,0.0001720999999999,53.2177,112.1878,44.7349,103.149,-0.028057,-0.00723315,0.0,0 STARLINK-3791,1 52269U 22041J   22165.91667824 -.00723315  00000-0 -28057-1 0  9998,2 52269  53.2177 112.1878 0001721  44.7349 103.1490 15.27933435  9695,6860.128000000002,94.245,483.174,480.812,0.0
52269.0,STARLINK-3791,PAYLOAD,2022-06-15 14:00:01,15.26915029,0.0001668,53.2175,109.1067,48.8613,166.8655,-0.029044,-0.00725623,0.0,0 STARLINK-3791,1 52269U 22041J   22166.58334491 -.00725623  00000-0 -29044-1 0  9994,2 52269  53.2175 109.1067 0001668  48.8613 166.8655 15.26915029  1305,6863.178000000001,94.308,486.18800000000016,483.898,0.0
52269.0,STARLINK-3791,PAYLOAD,2022-06-15 22:00:00,15.26403882,0.0001681,53.2176,107.5682,48.0435,200.686,-0.029407,-0.00723498,0.0,0 STARLINK-3791,1 52269U 22041J   22166.91667824 -.00723498  00000-0 -29407-1 0  9991,2 52269  53.2176 107.5682 0001681  48.0435 200.6860 15.26403882  9841,6864.71,94.339,487.729,485.421,0.0
52269.0,STARLINK-3791,PAYLOAD,2022-06-16 02:00:01,15.26151915,0.0001675,53.2173,106.8006,46.1538,38.8449,-0.029846,-0.00728353,0.0,0 STARLINK-3791,1 52269U 22041J   22167.08334491 -.00728353  00000-0 -29846-1 0  9993,2 52269  53.2173 106.8006 0001675  46.1538  38.8449 15.26151915  1300,6865.465999999999,94.355,488.481,486.181,0.0
52269.0,STARLINK-3791,PAYLOAD,2022-06-19 14:00:01,15.20792801,0.0001551,53.2174,90.721,55.6699,155.644,-0.034654,-0.00721066,0.0,0 STARLINK-3791,1 52269U 22041J   22170.58334491 -.00721066  00000-0 -34654-1 0  9999,2 52269  53.2174  90.7210 0001551  55.6699 155.6440 15.20792801  1303,6881.585,94.687,504.517,502.383,0.0
52269.0,STARLINK-3791,PAYLOAD,2022-06-19 22:00:00,15.20283334,0.0001675999999999,53.2176,89.1975,50.6775,186.2847,-0.035226,-0.0072203,0.0,0 STARLINK-3791,1 52269U 22041J   22170.91667824 -.00722030  00000-0 -35226-1 0  9993,2 52269  53.2176  89.1975 0001676  50.6775 186.2847 15.20283334  1300,6883.121999999999,94.719,506.141,503.834,0.0
52269.0,STARLINK-3791,PAYLOAD,2022-06-20 14:00:01,15.19262257,0.0001449,53.2175,86.1514,56.6173,229.8057,-0.036186,-0.0072001,0.0,0 STARLINK-3791,1 52269U 22041J   22171.58334491 -.00720010  00000-0 -36186-1 0  9990,2 52269  53.2175  86.1514 0001449  56.6173 229.8057 15.19262257  1307,6886.206,94.783,509.069,507.073,0.0
52269.0,STARLINK-3791,PAYLOAD,2022-06-20 22:00:00,15.18753806,0.0001561999999999,53.2176,84.6315,49.29,260.9424,-0.036853,-0.00722353,0.0,0 STARLINK-3791,1 52269U 22041J   22171.91667824 -.00722353  00000-0 -36853-1 0  9999,2 52269  53.2176  84.6315 0001562  49.2900 260.9424 15.18753806 10603,6887.743,94.815,510.684,508.532,0.0
52269.0,STARLINK-3791,PAYLOAD,2022-06-21 14:00:01,15.17731808,0.0001341999999999,53.2174,81.5925,57.1377,298.8793,-0.037795,-0.00719384,0.0,0 STARLINK-3791,1 52269U 22041J   22172.58334491 -.00719384  00000-0 -37795-1 0  9990,2 52269  53.2174  81.5925 0001342  57.1377 298.8793 15.17731808  1309,6890.834,94.878,513.624,511.775,0.0
52269.0,STARLINK-3791,PAYLOAD,2022-06-21 22:00:00,15.17224409,0.0001505,53.2177,80.0764,49.2099,328.7776,-0.038576,-0.00723312,0.0,0 STARLINK-3791,1 52269U 22041J   22172.91667824 -.00723312  00000-0 -38576-1 0  9990,2 52269  53.2177  80.0764 0001505  49.2099 328.7776 15.17224409 10758,6892.371,94.91,515.273,513.198,0.0
52269.0,STARLINK-3791,PAYLOAD,2022-06-22 14:00:01,15.16202406,0.0001361,53.2174,77.0443,56.5709,3.5247,-0.039557,-0.00720433,0.0,0 STARLINK-3791,1 52269U 22041J   22173.58334491 -.00720433  00000-0 -39557-1 0  9996,2 52269  53.2174  77.0443 0001361  56.5709   3.5247 15.16202406  1308,6895.468000000003,94.974,518.271,516.394,0.0
52269.0,STARLINK-3791,PAYLOAD,2022-06-22 22:00:00,15.15694142,0.0001514,53.2175,75.532,51.6839,28.544,-0.04029,-0.0072301999999999,0.0,0 STARLINK-3791,1 52269U 22041J   22173.91667824 -.00723020  00000-0 -40290-1 0  9993,2 52269  53.2175  75.5320 0001514  51.6839  28.5440 15.15694142  1309,6897.009,95.006,519.918,517.83,0.0
52269.0,STARLINK-3791,PAYLOAD,2022-06-23 06:00:00,15.15183579,0.0001396999999999,53.2172,74.0199,60.7741,38.9747,-0.040753,-0.00720893,0.0,0 STARLINK-3791,1 52269U 22041J   22174.25001157 -.00720893  00000-0 -40753-1 0  9991,2 52269  53.2172  74.0199 0001397  60.7741  38.9747 15.15183579 10960,6898.558000000001,95.038,521.387,519.46,0.0
52269.0,STARLINK-3791,PAYLOAD,2022-06-23 14:00:01,15.14673691,0.0001481,53.2173,72.5069,55.0703,63.5884,-0.041449,-0.00722537,0.0,0 STARLINK-3791,1 52269U 22041J   22174.58334491 -.00722537  00000-0 -41449-1 0  9997,2 52269  53.2173  72.5069 0001481  55.0703  63.5884 15.14673691  1301,6900.106,95.07,522.993,520.9490000000002,0.0
52269.0,STARLINK-3791,PAYLOAD,2022-06-23 22:00:00,15.1416318,0.0001611,53.2174,70.9981,53.2267,83.7268,-0.041986,-0.00721467,0.0,0 STARLINK-3791,1 52269U 22041J   22174.91667824 -.00721467  00000-0 -41986-1 0  9990,2 52269  53.2174  70.9981 0001611  53.2267  83.7268 15.14163180  1304,6901.656999999997,95.102,524.634,522.41,0.0
52269.0,STARLINK-3791,PAYLOAD,2022-06-24 06:00:02,15.13653728,0.0001431,53.2172,69.4894,68.4464,86.2525,-0.042587,-0.00721314,0.0,0 STARLINK-3791,1 52269U 22041J   22175.25002315 -.00721314  00000-0 -42587-1 0  9995,2 52269  53.2172  69.4894 0001431  68.4464  86.2525 15.13653728 11110,6903.206,95.134,526.059,524.0830000000002,0.0
52269.0,STARLINK-3791,PAYLOAD,2022-06-24 14:00:01,15.13144431,0.0001530999999999,53.2172,67.9801,59.1573,112.5496,-0.043361,-0.00723779,0.0,0 STARLINK-3791,1 52269U 22041J   22175.58334491 -.00723779  00000-0 -43361-1 0  9992,2 52269  53.2172  67.9801 0001531  59.1573 112.5496 15.13144431  1306,6904.755,95.166,527.677,525.563,0.0
52269.0,STARLINK-3791,PAYLOAD,2022-06-24 22:00:01,15.12632323,0.000167,53.2174,66.4749,53.8493,134.3776,-0.043739,-0.0071994,0.0,0 STARLINK-3791,1 52269U 22041J   22175.91668981 -.00719940  00000-0 -43739-1 0  9997,2 52269  53.2174  66.4749 0001670  53.8493 134.3776 15.12632323  1303,6906.313,95.198,529.331,527.025,0.0
52269.0,STARLINK-3791,PAYLOAD,2022-06-25 06:00:00,15.12124567,0.0001464,53.2172,64.9697,68.2686,135.7387,-0.044562,-0.00722875,0.0,0 STARLINK-3791,1 52269U 22041J   22176.25001157 -.00722875  00000-0 -44562-1 0  9997,2 52269  53.2172  64.9697 0001464  68.2686 135.7387 15.12124567 11266,6907.859,95.23,530.735,528.7130000000002,0.0
52269.0,STARLINK-3791,PAYLOAD,2022-06-25 14:00:01,15.11614341,0.0001546,53.2172,63.4639,60.1022,159.1381,-0.045253,-0.00723634,0.0,0 STARLINK-3791,1 52269U 22041J   22176.58334491 -.00723634  00000-0 -45253-1 0  9995,2 52269  53.2172  63.4639 0001546  60.1022 159.1381 15.11614341  1303,6909.413000000001,95.262,532.347,530.21,0.0
